GLOBALSTAR M067         
1 32263U 07048A   24144.79490123 -.00000057  00000+0  29785-3 0  9991
2 32263  51.9727  95.2997 0000477 250.1720 117.1642 12.40645710761393
GLOBALSTAR M070         
1 32264U 07048B   24144.57184582 -.00000047  00000+0  31436-3 0  9992
2 32264  51.9744 235.4054 0000215 117.9244 346.4300 12.62293035764468
GLOBALSTAR M066         
1 32265U 07048C   24144.30825573 -.00000097  00000+0  35779-4 0  9996
2 32265  51.9672  98.1831 0000348  27.1077 137.0632 12.62262429766691
GLOBALSTAR M079         
1 37188U 10054A   24144.60107632 -.00000065  00000+0  21383-3 0  9998
2 37188  52.0038 245.7486 0000757 141.9365 322.3907 12.62270291627251
GLOBALSTAR M074         
1 37189U 10054B   24144.46376427 -.00000070  00000+0  18926-3 0  9998
2 37189  52.0012 245.5504 0000500 132.1970 307.0780 12.62268879627846
GLOBALSTAR M076         
1 37190U 10054C   24144.57486164 -.00000067  00000+0  20384-3 0  9999
2 37190  52.0024 245.3449 0000655 172.4792 293.8144 12.62261287627579
GLOBALSTAR M077         
1 37191U 10054D   24144.48198126 -.00000056  00000+0  26620-3 0  9995
2 37191  52.0058 202.3747 0000205 159.4698 302.9957 12.62273541627932
